TRANSPORTER-12 OBJECT AZ
1 62656U 25009AZ  26068.71026235  .00016057  00000+0  54903-3 0  9991
2 62656  97.3981 151.9913 0000987  45.3581 314.7740 15.30349724 63792
STARLINK-32899          
1 62994U 25031P   26068.18533830  .00028602  00000+0  10440-2 0  9992
2 62994  42.9974 146.5747 0003742 291.0708  68.9743 15.27602946 61011
